FLOCK 4H-34             
1 66737U 25276BZ  26198.52007008  .00003500  00000+0  16165-3 0  9998
2 66737  97.4226 271.8981 0002828 164.3049 195.8275 15.20856889 34291
FLOCK 4H-35             
1 66738U 25276CA  26198.95616557  .00003763  00000+0  17294-3 0  9996
2 66738  97.4182 272.2647 0002826 146.4681 213.6734 15.20974653 34400
FLOCK 4H-36             
1 66739U 25276CB  26198.13973915  .00003887  00000+0  17981-3 0  9991
2 66739  97.4234 271.5162 0002634 177.0444 183.0808 15.20734158 34986
