{"fetched_at":"2026-07-18T06:27:47.409Z","source":"https://celestrak.org/NORAD/elements/gp.php?GROUP=planet&FORMAT=JSON","constellation":"superdove","records":[{"OBJECT_NAME":"FLOCK 4H-34","OBJECT_ID":"2025-276BZ","EPOCH":"2026-07-17T12:28:54.054912","CLASSIFICATION_TYPE":"U","MEAN_MOTION":15.20856889,"ECCENTRICITY":0.0002828,"INCLINATION":97.4226,"RA_OF_ASC_NODE":271.8981,"ARG_OF_PERICENTER":164.3049,"MEAN_ANOMALY":195.8275,"EPHEMERIS_TYPE":0,"NORAD_CAT_ID":66737,"ELEMENT_SET_NO":999,"REV_AT_EPOCH":3429,"BSTAR":0.00016165,"MEAN_MOTION_DOT":0.000035,"MEAN_MOTION_DDOT":0},{"OBJECT_NAME":"FLOCK 4H-35","OBJECT_ID":"2025-276CA","EPOCH":"2026-07-17T22:56:52.705248","CLASSIFICATION_TYPE":"U","MEAN_MOTION":15.20974653,"ECCENTRICITY":0.00028262,"INCLINATION":97.4182,"RA_OF_ASC_NODE":272.2647,"ARG_OF_PERICENTER":146.4681,"MEAN_ANOMALY":213.6734,"EPHEMERIS_TYPE":0,"NORAD_CAT_ID":66738,"ELEMENT_SET_NO":999,"REV_AT_EPOCH":3440,"BSTAR":0.00017293504,"MEAN_MOTION_DOT":0.00003763,"MEAN_MOTION_DDOT":0},{"OBJECT_NAME":"FLOCK 4H-36","OBJECT_ID":"2025-276CB","EPOCH":"2026-07-17T03:21:13.462560","CLASSIFICATION_TYPE":"U","MEAN_MOTION":15.20734158,"ECCENTRICITY":0.00026345,"INCLINATION":97.4234,"RA_OF_ASC_NODE":271.5162,"ARG_OF_PERICENTER":177.0444,"MEAN_ANOMALY":183.0808,"EPHEMERIS_TYPE":0,"NORAD_CAT_ID":66739,"ELEMENT_SET_NO":999,"REV_AT_EPOCH":3498,"BSTAR":0.00017980509,"MEAN_MOTION_DOT":0.00003887,"MEAN_MOTION_DDOT":0}]}
